[{"OBJECT_NAME":"TEN-KOH","OBJECT_ID":"2018-084G","EPOCH":"2026-03-09T23:23:52.653408","MEAN_MOTION":15.02465351,"ECCENTRICITY":0.0011972,"INCLINATION":98.0798,"RA_OF_ASC_NODE":257.1735,"ARG_OF_PERICENTER":91.8355,"MEAN_ANOMALY":268.424,"EPHEMERIS_TYPE":0,"CLASSIFICATION_TYPE":"U","NORAD_CAT_ID":43677,"ELEMENT_SET_NO":999,"REV_AT_EPOCH":40126,"BSTAR":0.00025918134,"MEAN_MOTION_DOT":3.377e-5,"MEAN_MOTION_DDOT":0},{"OBJECT_NAME":"STARLINK-5773","OBJECT_ID":"2023-088AC","EPOCH":"2026-03-09T19:35:37.020480","MEAN_MOTION":15.02537087,"ECCENTRICITY":0.00011533,"INCLINATION":43.0031,"RA_OF_ASC_NODE":106.3597,"ARG_OF_PERICENTER":272.5844,"MEAN_ANOMALY":87.4866,"EPHEMERIS_TYPE":0,"CLASSIFICATION_TYPE":"U","NORAD_CAT_ID":57074,"ELEMENT_SET_NO":999,"REV_AT_EPOCH":15039,"BSTAR":2.7130697e-5,"MEAN_MOTION_DOT":1.63e-6,"MEAN_MOTION_DDOT":0}]
